NORAD_CAT_ID,OBJECT_NAME,OBJECT_TYPE,EPOCH,MEAN_MOTION,ECCENTRICITY,INCLINATION,RA_OF_ASC_NODE,ARG_OF_PERICENTER,MEAN_ANOMALY,BSTAR,MEAN_MOTION_DOT,MEAN_MOTION_DDOT,TLE_LINE0,TLE_LINE1,TLE_LINE2,SEMIMAJOR_AXIS,PERIOD,APOGEE,PERIGEE,DECAYED
51740.0,STARLINK-3500,PAYLOAD,2024-02-19 09:19:35,15.08838717,0.0001701,53.2168,82.8668,104.6188,255.4993,8.0448e-05,9.92e-06,0.0,0 STARLINK-3500,1 51740U 22016AC  24050.38860017  .00000992  00000-0  80448-4 0  9990,2 51740  53.2168  82.8668 0001701 104.6188 255.4993 15.08838717110444,6917.884,95.438,540.926,538.573,0.0
51740.0,STARLINK-3500,PAYLOAD,2024-02-19 18:51:53,15.08839189,0.0001699,53.2176,81.0826,102.811,257.3073,6.7311e-05,7.83e-06,0.0,0 STARLINK-3500,1 51740U 22016AC  24050.78604064  .00000783  00000-0  67311-4 0  9994,2 51740  53.2176  81.0826 0001699 102.8110 257.3073 15.08839189111569,6917.883,95.438,540.923,538.573,0.0
51740.0,STARLINK-3500,PAYLOAD,2024-02-20 10:45:45,15.08837958,0.0001703,53.2173,78.1084,99.3522,260.7662,-1.9138e-05,-5.93e-06,0.0,0 STARLINK-3500,1 51740U 22016AC  24051.44844264 -.00000593  00000-0 -19138-4 0  9991,2 51740  53.2173  78.1084 0001703  99.3522 260.7662 15.08837958110600,6917.887,95.438,540.93,538.574,0.0
51740.0,STARLINK-3500,PAYLOAD,2024-02-20 18:42:41,15.08840692,0.0001743,53.2174,76.6194,92.0536,268.0656,3.0382e-05,1.95e-06,0.0,0 STARLINK-3500,1 51740U 22016AC  24051.77964196  .00000195  00000-0  30382-4 0  9994,2 51740  53.2174  76.6194 0001743  92.0536 268.0656 15.08840692110653,6917.878,95.438,540.949,538.537,0.0
51740.0,STARLINK-3500,PAYLOAD,2024-02-21 09:01:09,15.08844845,0.0001612,53.2168,73.9434,97.6352,262.4823,0.00015272,2.144e-05,0.0,0 STARLINK-3500,1 51740U 22016AC  24052.37579994  .00002144  00000-0  15272-3 0  9995,2 51740  53.2168  73.9434 0001612  97.6352 262.4823 15.08844845111801,6917.866,95.437,540.846,538.615,0.0
51740.0,STARLINK-3500,PAYLOAD,2024-02-21 18:33:28,15.08838688,0.0001598,53.2173,72.1606,84.6694,275.448,6.4685e-05,7.42e-06,0.0,0 STARLINK-3500,1 51740U 22016AC  24052.77324394  .00000742  00000-0  64685-4 0  9996,2 51740  53.2173  72.1606 0001598  84.6694 275.4480 15.08838688111864,6917.884,95.438,540.855,538.644,0.0
51740.0,STARLINK-3500,PAYLOAD,2024-02-22 08:51:56,15.08843436,0.000149,53.2158,69.4802,89.788,270.3283,0.00012172,1.65e-05,0.0,0 STARLINK-3500,1 51740U 22016AC  24053.36940179  .00001650  00000-0  12172-3 0  9999,2 51740  53.2158  69.4802 0001490  89.7880 270.3283 15.08843436110892,6917.87,95.437,540.766,538.704,0.0
51740.0,STARLINK-3500,PAYLOAD,2024-02-22 18:24:15,15.08844401,0.0001437,53.2165,67.6963,89.7356,270.3801,0.00013248,1.821e-05,0.0,0 STARLINK-3500,1 51740U 22016AC  24053.76684112  .00001821  00000-0  13248-3 0  9990,2 51740  53.2165  67.6963 0001437  89.7356 270.3801 15.08844401110953,6917.867,95.437,540.726,538.738,0.0
51740.0,STARLINK-3500,PAYLOAD,2024-02-23 07:07:20,15.08844181,0.0001469,53.2157,65.3182,95.5154,264.6006,0.00010296,1.351e-05,0.0,0 STARLINK-3500,1 51740U 22016AC  24054.29676084  .00001351  00000-0  10296-3 0  9996,2 51740  53.2157  65.3182 0001469  95.5154 264.6006 15.08844181112093,6917.868,95.437,540.749,538.716,0.0
51740.0,STARLINK-3500,PAYLOAD,2024-02-23 18:15:02,15.08839757,0.000145,53.2155,63.2362,94.7151,265.4007,9.2356e-05,1.182e-05,0.0,0 STARLINK-3500,1 51740U 22016AC  24054.76044364  .00001182  00000-0  92356-4 0  9998,2 51740  53.2155  63.2362 0001450  94.7151 265.4007 15.08839757111100,6917.881,95.438,540.749,538.743,0.0
51740.0,STARLINK-3500,PAYLOAD,2024-02-24 03:47:22,15.08818703,0.0001378,53.2163,61.452,101.0725,259.0422,0.00034328,5.176e-05,0.0,0 STARLINK-3500,1 51740U 22016AC  24055.15789378  .00005176  00000-0  34328-3 0  9994,2 51740  53.2163  61.4520 0001378 101.0725 259.0422 15.08818703112225,6917.945,95.439,540.764,538.857,0.0
51740.0,STARLINK-3500,PAYLOAD,2024-02-24 06:58:07,15.08839168,0.0001512,53.2174,60.8574,91.9837,268.1329,6.5823e-05,7.6e-06,0.0,0 STARLINK-3500,1 51740U 22016AC  24055.29036520  .00000760  00000-0  65823-4 0  9992,2 51740  53.2174  60.8574 0001512  91.9837 268.1329 15.08839168112247,6917.883,95.438,540.794,538.702,0.0
51740.0,STARLINK-3500,PAYLOAD,2024-02-25 06:48:53,15.08851677,0.000153,53.2179,56.3981,91.6129,268.5038,0.00012926,1.77e-05,0.0,0 STARLINK-3500,1 51740U 22016AC  24056.28395571  .00001770  00000-0  12926-3 0  9993,2 51740  53.2179  56.3981 0001530  91.6129 268.5038 15.08851677112391,6917.845,95.437,540.768,538.651,0.0
51740.0,STARLINK-3500,PAYLOAD,2024-02-25 16:21:12,15.08848553,0.0001396,53.2167,54.613,91.1804,268.9348,7.0791e-05,8.39e-06,0.0,0 STARLINK-3500,1 51740U 22016AC  24056.68139769  .00000839  00000-0  70791-4 0  9992,2 51740  53.2167  54.6130 0001396  91.1804 268.9348 15.08848553112454,6917.854,95.437,540.685,538.754,0.0
51740.0,STARLINK-3500,PAYLOAD,2024-02-26 03:28:55,15.08838494,0.0001457,53.2173,52.532,90.0273,270.0886,0.00012575,1.714e-05,0.0,0 STARLINK-3500,1 51740U 22016AC  24057.14508428  .00001714  00000-0  12575-3 0  9994,2 51740  53.2173  52.5320 0001457  90.0273 270.0886 15.08838494112527,6917.885,95.438,540.758,538.742,0.0
51740.0,STARLINK-3500,PAYLOAD,2024-02-26 06:39:41,15.08843728,0.0001425,53.2183,51.9392,90.5686,269.5469,0.00014649,2.044e-05,0.0,0 STARLINK-3500,1 51740U 22016AC  24057.27755983  .00002044  00000-0  14649-3 0  9999,2 51740  53.2183  51.9392 0001425  90.5686 269.5469 15.08843728111488,6917.869,95.437,540.72,538.748,0.0
51740.0,STARLINK-3500,PAYLOAD,2024-02-27 03:19:42,15.08838172,0.0001663,53.2177,48.074,109.5377,250.5795,-1.9848e-05,-6.04e-06,0.0,0 STARLINK-3500,1 51740U 22016AC  24058.13868845 -.00000604  00000-0 -19848-4 0  9996,2 51740  53.2177  48.0740 0001663 109.5377 250.5795 15.08838172112678,6917.886,95.438,540.901,538.601,0.0
51740.0,STARLINK-3500,PAYLOAD,2024-02-27 09:41:15,15.08837655,0.0001592,53.2181,46.8822,100.0828,260.0344,-4.729e-05,-1.041e-05,0.0,0 STARLINK-3500,1 51740U 22016AC  24058.40364812 -.00001041  00000-0 -47290-4 0  9999,2 51740  53.2181  46.8822 0001592 100.0828 260.0344 15.08837655111656,6917.888,95.438,540.854,538.651,0.0
51740.0,STARLINK-3500,PAYLOAD,2024-02-27 22:24:20,15.08830024,0.0001496,53.2181,44.5025,93.765,266.3513,6.5907e-06,-1.83e-06,0.0,0 STARLINK-3500,1 51740U 22016AC  24058.93357538 -.00000183  00000-0  65907-5 0  9995,2 51740  53.2181  44.5025 0001496  93.7650 266.3513 15.08830024111739,6917.911,95.438,540.811,538.741,0.0
51740.0,STARLINK-3500,PAYLOAD,2024-02-28 06:21:16,15.08841968,0.0001448,53.2177,43.0166,92.3219,267.7939,-5.8462e-06,-3.81e-06,0.0,0 STARLINK-3500,1 51740U 22016AC  24059.26476962 -.00000381  00000-0 -58462-5 0  9994,2 51740  53.2177  43.0166 0001448  92.3219 267.7939 15.08841968112846,6917.874,95.437,540.741,538.738,0.0
51740.0,STARLINK-3500,PAYLOAD,2024-02-28 22:15:07,15.08834321,0.0001567,53.2182,40.0424,89.8288,270.2884,0.00010185,1.333e-05,0.0,0 STARLINK-3500,1 51740U 22016AC  24059.92717335  .00001333  00000-0  10185-3 0  9993,2 51740  53.2182  40.0424 0001567  89.8288 270.2884 15.08834321111881,6917.898,95.438,540.847,538.679,0.0
51740.0,STARLINK-3500,PAYLOAD,2024-02-29 07:47:26,15.08841759,0.0001462,53.2175,38.2579,88.056,272.06,0.00014909,2.086e-05,0.0,0 STARLINK-3500,1 51740U 22016AC  24060.32460841  .00002086  00000-0  14909-3 0  9990,2 51740  53.2175  38.2579 0001462  88.0560 272.0600 15.08841759113006,6917.875,95.437,540.751,538.729,0.0
51740.0,STARLINK-3500,PAYLOAD,2024-02-29 22:05:54,15.08837614,0.0001515,53.2178,35.5816,91.6797,268.4368,0.00010962,1.457e-05,0.0,0 STARLINK-3500,1 51740U 22016AC  24060.92077286  .00001457  00000-0  10962-3 0  9999,2 51740  53.2178  35.5816 0001515  91.6797 268.4368 15.08837614112031,6917.888,95.438,540.801,538.705,0.0
51740.0,STARLINK-3500,PAYLOAD,2024-03-01 07:38:12,15.08850892,0.0001437,53.2174,33.7967,103.1758,256.9394,0.0001134,1.518e-05,0.0,0 STARLINK-3500,1 51740U 22016AC  24061.31820285  .00001518  00000-0  11340-3 0  9997,2 51740  53.2174  33.7967 0001437 103.1758 256.9394 15.08850892112093,6917.847,95.437,540.706,538.718,0.0
51740.0,STARLINK-3500,PAYLOAD,2024-03-01 15:35:08,15.08843235,0.0001423,53.218,32.3097,91.0051,269.1104,5.4571e-05,5.81e-06,0.0,0 STARLINK-3500,1 51740U 22016AC  24061.64940941  .00000581  00000-0  54571-4 0  9998,2 51740  53.2180  32.3097 0001423  91.0051 269.1104 15.08843235113207,6917.871,95.437,540.72,538.751,0.0
51740.0,STARLINK-3500,PAYLOAD,2024-03-02 04:18:13,15.0884608,0.0001449,53.2183,29.9307,95.4373,264.6785,3.4187e-05,2.56e-06,0.0,0 STARLINK-3500,1 51740U 22016AC  24062.17932796  .00000256  00000-0  34187-4 0  9996,2 51740  53.2183  29.9307 0001449  95.4373 264.6785 15.08846080112226,6917.862,95.437,540.729,538.724,0.0
51740.0,STARLINK-3500,PAYLOAD,2024-03-03 04:09:00,15.08844481,0.0001366,53.2164,25.4692,102.7859,257.3286,4.7746e-05,4.72e-06,0.0,0 STARLINK-3500,1 51740U 22016AC  24063.17292670  .00000472  00000-0  47746-4 0  9992,2 51740  53.2164  25.4692 0001366 102.7859 257.3286 15.08844481113434,6917.867,95.437,540.677,538.787,0.0
51740.0,STARLINK-3500,PAYLOAD,2024-03-03 07:19:46,15.08849387,0.0001364,53.2176,24.8737,102.3019,257.8126,1.0321e-05,-1.24e-06,0.0,0 STARLINK-3500,1 51740U 22016AC  24063.30540449 -.00000124  00000-0  10321-4 0  9991,2 51740  53.2176  24.8737 0001364 102.3019 257.8126 15.08849387112394,6917.852,95.437,540.66,538.773,0.0
51740.0,STARLINK-3500,PAYLOAD,2024-03-04 02:24:25,15.08837804,0.0001409,53.2185,21.304,101.5823,258.5328,3.3975e-05,2.53e-06,0.0,0 STARLINK-3500,1 51740U 22016AC  24064.10029295  .00000253  00000-0  33975-4 0  9993,2 51740  53.2185  21.3040 0001409 101.5823 258.5328 15.08837804113571,6917.887,95.438,540.727,538.777,0.0
51740.0,STARLINK-3500,PAYLOAD,2024-03-05 02:15:13,15.08829849,0.0001246,53.2189,16.8497,86.5418,273.5716,-3.9966e-05,-9.24e-06,0.0,0 STARLINK-3500,1 51740U 22016AC  24065.09390649 -.00000924  00000-0 -39966-4 0  9999,2 51740  53.2189  16.8497 0001246  86.5418 273.5716 15.08829849113726,6917.911,95.438,540.638,538.914,0.0
